,restaurant_id,restaurant_name,restaurant_website,address1,city,state,zip code
0,1,Rosie’s Trattoria,Find a Table,1181 Sussex Tpke,Randolph,NJ,07869
1,2,SubUrban Bar & Kitchen,sbknj.com,500 NJ-10,Randolph,NJ,07869
2,3,4 Seasons Mediterranean Restaurant,4seasonswharton.com,322 S Main St,Wharton,NJ,07885
3,4,Quiet Man Pub,quietmanpub.com,64 E Mcfarlan St,Dover,NJ,07801
4,5,Verona Restaurant,veronarestaurant.com,1171 Sussex Tpke,Randolph,NJ,07869
5,6,El Lechon De Negron,0,23 E Main St,Denville,NJ,07834
6,7,The Corner Bistro,thecornerbistronj.com,477 NJ-10,Randolph,NJ,07869
7,8,ALEV Mediterranean Grill,alevmediterraneangrill.com,76 Rte 46,Rockaway,NJ,07866
8,9,Mr Crabby’s Craft Kitchen & Bar,mrcrabbys.com,399 NJ-10,Randolph,NJ,07869
9,10,Kabab Paradise,kababparadise.com,124 Rte 10 W,Randolph,NJ,07869
10,11,Takashi Japanese Cuisine,Find a Table,23 Washington St,Morristown,NJ,07960
11,12,Up Thai,0,981 Tabor Rd,Morris Plains,NJ,07950
12,13,The Windlass,thewindlass.com,45 Nolans Point Park Rd,Lake Hopatcong,NJ,07849
13,14,Noches de Colombia,nochesdecolombiarandolph.com,140 Route 10 W,Randolph,NJ,07869
14,15,Black River Barn,blackriverbarn.com/index1.html,1178 Rte 10 W,Randolph,NJ,07869
15,16,American Heroes Smokehouse,americanheroesbbq.com,1594 Route 10,Randolph,NJ,07869
16,17,Pierogies House,pierogieshouse.com,145 Morris St,Morristown,NJ,07960
17,18,Taphouse 15,taphouse15.com,75 State Rte 15 S,Jefferson,NJ,07885
20,19,Thai Nam Phet,thainamphet.com,296 US Hwy 46,Rockaway,NJ,07866
21,20,La Strada Ristorante,0,1105 State Route 10 E,Randolph,NJ,07869
22,21,Ichiban,0,1034 Rt 46 E,Ledgewood,NJ,07852
23,22,Zuzannas Gourmet,zuzannasgourmet.com,1152 State Rt 10,Randolph,NJ,07869
24,23,Spain Rincon,0,41 Richard Mine Rd,Wharton,NJ,07885
25,24,Barka,barkaseafoodrestaurant.com,60 Route 46,Mountain Lakes,NJ,07046
26,25,Randolph Diner,therandolphdiner.com,517 State Rte 10,Randolph,NJ,07869
27,26,Stirling Tavern,stirlingtavern.com,150 South St,Morristown,NJ,07960
28,27,The Pasta Shop,thepastashopdenville.com,13 First Ave,Denville,NJ,07834
29,28,Knotty Pine Pub,knottypinepub.com,242 E Union Tpke,Wharton,NJ,07885
30,29,JA Spice Island Jerk and American Food,Www.jaspice.com,67 Main St,Netcong,NJ,07857
31,30,Bruno’s Italian Bistro,brunositalianbistronj.com,2900 NJ-10,Morris Plains,NJ,07950
33,31,Lotus Thai Cuisine,thelotusthai.com,540 State Hwy 10 W,Randolph,NJ,07869
34,32,New Horizon Chinese Restaurant,0,124 State Route 10,Randolph,NJ,07869
35,33,Caffe Navona,caffenavona.com,147 Us Hwy 46,Rockaway,NJ,07866
36,34,Miller’s Ale House - Rockaway,millersalehouse.com,325 Mt Pleasant Ave,Rockaway,NJ,07866
37,35,Cheek’s Chicken,cheeksnj.com,286 Rt 46 E,Rockaway,NJ,07866
38,36,Istanbul Turkish Mediterranean Cuisine,istanbulcuisinenj.com,286 US 206,Flanders,NJ,07836
39,37,Cinders Wood Fire Grill,cinderswoodfiregrill.com,319 US 46,Mine Hill Township,NJ,07803
40,38,Rocco’s Burgers Dogs and Fries,roccos-burgers-dogs-and-fries.…,405 US-46,Roxbury Township,NJ,07847
41,39,Pren Kitchen,prenkitchen.com,52 Main StSte 1,Chester,NJ,07930
42,40,Carmel Haifa,carmelhaifa.com,682 Speedwell Ave,Morris Plains,NJ,07950
43,41,South + Pine American Eatery,southandpine.com,90 South St,Morristown,NJ,07960
44,42,Fig & Lily Garden,figandlilygarden.com,2 Cattano Ave,Morristown,NJ,07960
45,43,Taqueria Pancho Villa,0,7 N Essex St,Dover,NJ,07801
46,44,Cinnamon,cinnamonindianrestaurant.com,2920 State Route 10,Morris Plains,NJ,07950
47,45,Beanbury,beanburycoffee.com,37 Route 10 E,Succasunna,NJ,07876
48,46,Bucky’s,0,Picatinny ArsenalBldg 337,Rockaway Township,NJ,07806
49,47,Jai-Alai,jaialairestaurant.com,73 W Blackwell St,Dover,NJ,07801
50,48,H2Ocean Restaurant & Raw Bar,h2oceanrestaurant.com,41 Ridgedale Ave,Cedar Knolls,NJ,07927
52,49,The Alibi Beach Bar,alibibeachbar.com,172 Lackawanna Dr,Stanhope,NJ,07874
53,50,Riviera Maya,rivieramayanj.com,116 Rt 46 E,Rockaway,NJ,07866
54,51,La Bamba Grill,bambagrill.com,150 E McFarlan St,Dover,NJ,07801
55,52,Bollywood Grill 2,bollywoodgrill.net,1729 NJ-10 E,Morris Plains,NJ,07950
56,53,Table 42,table42dover.com,42 N Sussex St,Dover,NJ,07801
57,54,Thai Kitchen,thaikitchenchester.com,320 US Hwy 206 S,Chester,NJ,07930
58,55,The Clay Oven Indian Restaurant,theclayoven.com,1140 Rt 46,Ledgewood,NJ,07852
59,56,Sapori D’Italia,0,7 West Main St.,Mendham,NJ,07945
60,57,Madame Thai Cuisine,madamethainj.com,3 Pine St,Morristown,NJ,07960
61,58,NJ Bar & Grill,njbarandgrill.com,100 Randolph Ave,Mine Hill,NJ,07803
62,59,Asian Diner,asiandinerrestaurantnj.com,1691 Rt 46,Roxbury Township,NJ,07852
64,60,Indian Aroma,indianaromarestaurant.com,222 Route 46Walgreens Shopping Ctr,Rockaway,NJ,07866
66,61,Azteca Mexican Restaurant,0,17 E Blackwell St,Dover,NJ,07801
67,62,Las Tres Marias,0,88 N Sussex St,Dover,NJ,07801
68,63,Don Jose Mexican Restaurant,donjosemexican.com,124 US 46 E,Netcong,NJ,07857
69,64,Forte Pizzeria & Ristorante,fortepizzeria.com,486 Rt 10,Randolph,NJ,07869
70,65,Sergio & Co Italian Specialties,sergioandco.com,28 Broadway,Denville,NJ,07834
71,66,Blossom Asian Bistro,blossomasianbistronj.com,181 Howard BlvdSte G,Mount Arlington,NJ,07856
72,67,Chick-fil-A,chick-fil-a.com,1711 Nj-10,Morris Plains,NJ,07950
73,68,Hummus Grill,0,301 Mt Hope Ave,Wharton,NJ,07885
74,69,Casa De Pasta,casadepastanj.com,1438 Sussex Tpke,Randolph,NJ,07869
75,70,Bistro 46,bistro46morristown.com,12 Elm St,Morristown,NJ,07960
77,71,Pop’s Chicken,popschickentogo.com,392 N Main St,Wharton,NJ,07885
79,72,Rocky’s Pasties,rockyspasties.com,47 Robert StRocky's Food Store,Wharton,NJ,07885
80,73,Tequilas 55,tequilas55.com,55 E Blakwell St,Dover,NJ,07801
81,74,Café Fiori,cafefiorinj.com,477 Rt 10 E,Randolph,NJ,07869
82,75,The Committed Pig,thecommittedpig.com,28 W Park Pl,Morristown,NJ,07960
83,76,The Black Horse Tavern & Pub,blackhorsenj.com,1 W Main St,Mendham,NJ,07945
84,77,Anthony & Sons Little Italy,anthonyandsonsbakery.com,15 Rte 10 E,Succasunna,NJ,07876
85,78,Casa Bella,casabella46.com,300 US Hwy 46,Denville,NJ,07834
86,79,Ashirwad Palace,ashirwadpalace.com,169 S Salem St,Randolph,NJ,07869
87,80,Mizuki Asian Fusion and Hibachi,asianmizukinj.com,1033 Rt 46,Ledgewood,NJ,07852
88,81,Giancarlos Bakery & Pastry Shop,giancarlosbakery.com,410 Rte 10Ste 10,Ledgewood,NJ,07852
89,82,Mondo Pizza Restaurant and Catering,mondopizzanj.com,540 Route 10 W,Randolph,NJ,07869
90,83,Grato,gratorestaurant.com,2230 Rt 10 W,Morris Plains,NJ,07950
91,84,Pizza Palace,0,1169 Sussex Tpke,Randolph,NJ,07869
92,85,El Marino,0,130 Mount Hope Ave,Dover,NJ,07801
93,86,Mostly Grill Indian fusion cuisine,Mostlygrill.com,286 Rte 46 E,Rockaway,NJ,07866
94,87,Polo’s Bar & Grill,polosbarandgrill.com,50 State Rt 183,Netcong,NJ,07857
95,88,Delicias Latinas,deliciaslatinasmp.com,643 Speedwell Ave,Morris Plains,NJ,07950
97,89,Taste of India,tasteofindianj.com,286 Route 206 S,Flanders,NJ,07836
98,90,Bombay Curry Pizza,jimmytomatospizzeria.com/menu.…,123 East Main Street Denville Nj 07834,Denville,NJ,07834
100,91,Dover Grill,0,240 Rt 46 E,Dover,NJ,07801
101,92,Miga Sushi,migasushi.com,559 E Main St,Denville,NJ,07834
102,93,Rinconcito Peruano,0,17 N Main St,Wharton,NJ,07885
103,94,Saigon Subs & Café,saigonsubscafe.com,98 Elm St,Morristown,NJ,07960
105,95,Sabor A Mexico,saboramexico.net,6 Wall St,Rockaway,NJ,07866
107,96,Sabor Latino,saborlatinodovernj.net,44 N Morris St,Dover,NJ,07801
108,97,"A&B Bagel, Deli, and Grill II",abbagel.com,1206 Sussex Tpke,Randolph,NJ,07869
109,98,Golden Burrito Mexican Spot,orderburrito.com,286 Rte 206 S,Flanders,NJ,07836
110,99,Marjan Fine Persian Grill,marjanpersiangrill.com,84 Speedwell Ave,Morristown,NJ,07960
112,100,Code 593 Cafe,0,2 S Main St,Wharton,NJ,07885
114,101,Golden Unicorn Restaurant,0,265 E Blackwell St,Dover,NJ,07801
115,102,American Bbq Co Inc,americanbbqco.com,94-1 Ford Rd,Denville,NJ,07834
116,103,Burrini’s Old World Market,burrinis.com,1204 Sussex Tpke,Mount Freedom,NJ,07970
118,104,House of Biryani’s and Kebabs,hbkdenville.com,315 US-46,Denville,NJ,07834
119,105,Tacoria,tacoria.com,52 South St,Morristown,NJ,07960
120,106,Antimo’s Pizzeria & Restaurant,antimospizzeria.com,1275 Sussex Tpke,Randolph,NJ,07869
121,107,Aoyama,aoyamanj.com,84 E Main StSte L,Mendham,NJ,07945
122,108,OoLaLa! Vietnamese Kitchen,oolalavietkitchen.com,2569 Rt 10 E,Morris Plains,NJ,07950
123,109,The Canal House,canalhousenj.com,47 Kossuth St,Wharton,NJ,07885
124,110,Town Bar + Kitchen,townbarandkitchen.com,80 Elm St,Morristown,NJ,07960
125,111,Twist On Thai Cafe,twistonthai.com,430 River Styx Rd,Hopatcong,NJ,07843
126,112,Yummy Taste Chinese Restaurant,0,692 US Highway 46 N,Succasunna,NJ,07876
127,113,Loving Hut,lovinghut.us,538 Rt 10 W,Roxbury Township,NJ,07852
128,114,Freshii,freshii.com,1767 Rte 10 E,Morris Plains,NJ,07950
129,115,Malay,malaymorristown.com,147 Morris St,Morristown,NJ,07960
130,116,La Forchetta,laforchettanj.com,350 N Main StSte 5,Wharton,NJ,07885
131,117,Jockey Hollow Bar & Kitchen,jockeyhollowbarandkitchen.com,110 South St,Morristown,NJ,07960
132,118,Sushi Hana Japanese Restaurant,sushihananj.com,15 State Route 10 E,Succasunna,NJ,07876
134,119,Sandi’s,sandissoulbites.com,82 Speedwell Ave,Morristown,NJ,07960
137,120,Nori Sushi,0,301 Mount Hope Ave,Rockaway,NJ,07801
139,121,Piattino: A Neighborhood Bistro,piattinonj.com,88 E Main St,Mendham,NJ,07945
140,122,Praderas,0,60 N Sussex St,Dover,NJ,07801
141,123,Brick 46,brick46.com,68 US Hwy 46,Rockaway,NJ,07866
142,124,Sandwiches Unlimited Lunch Box,sandwichesunlimitedlunchbox.co…,1034 US Hwy 46,Ledgewood,NJ,07852
143,125,Alfa Bagels,alfabagels.com,587 State Rt 10,Randolph,NJ,07869
144,126,Dante’s Italian Cuisine & Brick Oven Specialty Pizza,dantesitaliancuisine.com,488 Mt Hope Rd,Wharton,NJ,07885
145,127,Laku Sushi,lakusushi.com,30 Lafayette Ave,Morristown,NJ,07960
147,128,Altoque Colombian food,0,7 Bassett Hwy,Dover,NJ,07801
148,129,Artista Salumeria,artistasalumeria.com,423 Main St,Chester,NJ,07930
149,130,Chico’s Mexican Grill,chicosmexicangrill.com,559 E Main StSte 10,Denville,NJ,07834
150,131,L & L Deli & Catering,landldelinj.com,264 US Highway 46,Mine Hill,NJ,07803
151,132,Rose’s Luncheonette,0,431 US Hwy 46 N,Succasunna,NJ,07876
152,133,Sabretti’s Hot Dogs,sabrettis.com,1451 Route 46 W,Ledgewood,NJ,07852
153,134,Theodoras Family Restaurant and Pizza,TheodorasRestaurantPizza.com,336 S Main St,Wharton,NJ,07885
154,135,Damo Eating,damoeating.com,149 Lakeside Blvd,Landing,NJ,07850
155,136,Germania Park,germaniapark.com,56 Conger St,Rockaway Township,NJ,07801
156,137,Mamma Caterina,mammacaterinapizza.com,1250 Sussex Turnpike,Randolph,NJ,07869
157,138,Mega BBQ,0,75 Spring St,Morristown,NJ,07960
158,139,Bally Dar,ballydar.com,273 US Hwy 46,Mine Hill,NJ,07803
159,140,Alice’s - Temp. CLOSED,alicesrestaurantnj.com,24 Nolans Point Park Rd,Lake Hopatcong,NJ,07849
161,141,Colonial Pantry,0,5 W Main St,Mendham,NJ,07945
162,142,The Cheesecake Factory,thecheesecakefactory.com,301 Mount Hope AveSte 1013B,Rockaway,NJ,07866
164,143,Gusto 46,gusto46.com,271 US Hwy 46,Mine Hill,NJ,07803
165,144,Hunan Chinese Room,0,255 Speedwell Ave,Morris Plains,NJ,07950
167,145,Paisano’s Pizzeria,paisanospizzanj.com,138 Center Grove RdWeis Shopping Center,Randolph,NJ,07869
168,146,Cafe Metro,thecafemetro.com,60 Diamond Spring Rd,Denville,NJ,07834
169,147,The Tuscan Table,thetuscantabledenville.com,28 Diamond Spring Rd,Denville,NJ,07834
171,148,Tierras y Sabores Restaurant,tierrasysabores.net,39 W Blackwell StSte 1,Dover,NJ,07801
172,149,Little Nicki’s,0,120 Brady Rd,Lake Hopatcong,NJ,07849
173,150,Patrick’s Pub,patrickspub.net,470 River Styx Rd,Hopatcong,NJ,07843
174,151,The 53 Grill,0,383 E Main St,Denville,NJ,07834
175,152,Espanong Market,0,327 Espanong Rd,Lake Hopatcong,NJ,07849
176,153,Delikosositas Colombian Bakery and Cafe,0,337 US-46,Rockaway,NJ,07866
178,154,LongHorn Steakhouse,LongHornSteakhouse.com,50-J International Dr S,Flanders,NJ,07836
179,155,Yokohama Sushi,0,1013 US 46 And Howard Blvd,Ledgewood,NJ,07852
181,156,Luzzi’s Hibernia Inn,luzzishiberniainn.com,439 Green Pond Rd,Rockaway,NJ,07866
182,157,Las Brisaz,0,29 E Blackwell St,Dover,NJ,07801
183,158,Fuddruckers,fuddruckers.com,275 Rt 10,Succasunna,NJ,07876
184,159,The Colonial Grill,0,3 W Park Pl,Morristown,NJ,07960
185,160,Brooklyn Bagel & Deli,brooklynbagelanddelinj.com,517 E Rte 10,Randolph,NJ,07869
186,161,La Costilla De Pedro,0,57 N Sussex St,Dover,NJ,07801
187,162,TGI Fridays,Find a Table,1103 Route 46,Ledgewood,NJ,07852
188,163,Benito’s Jersey Curbside Eats,benitosjce.com,"Flanders, NJ 07836",Flanders,NJ,07836
189,164,Marino’s Cafe,elmarinoscafe.com,90 Belmont Ave,Dover,NJ,07801
192,165,Revolution,revolutionmorristown.com,9 South St,Morristown,NJ,07960
193,166,Szechuan Delite,szechuandelitemorrisplains.com,44 Gibraltar Dr,Morris Plains,NJ,07950
195,167,Red Lobster,redlobster.com,303 Route 10 - Roxbury TownshipLedgewood Mall,Ledgewood,NJ,07852
196,168,Office Tavern Grill,officetaverngrill.com,3 South St,Morristown,NJ,07960
198,169,Three Brothers Restaurant,0,9 N Morris St,Dover,NJ,07801
200,170,Bagel Nosh,0,399 US-46Route 46 West,Rockaway,NJ,07866
201,171,Lung Yung Restaurant,lungyungrestaurant.com,275-50 Roxbury Mall,Succasunna,NJ,07876
202,172,Fiamma Wood Fired Pizza,fiammapizza.com,47 S Park Pl,Morristown,NJ,07960
203,173,Outback Steakhouse,outback.com,1070 US Highway 46,Ledgewood,NJ,07852
204,174,The Second Half On Main,secondhalfonmain.com,5 E Main StSte 15,Denville,NJ,07834
208,175,Sandwiches Unlimited Lunch Box,sandwichesunlimitedlunchbox.co…,Boro Plz350 US Hwy 46,Rockaway,NJ,07866
209,176,Market Tavern,0,240 US-206Ste 1,Mount Olive Township,NJ,07836
210,177,Sogo Restaurant,sogo.cc,248 US Hwy 46 W,Denville,NJ,07834
212,178,Deli Delicious,0,44 Main St,Stanhope,NJ,07874
213,179,Mediterranean Grill,mediterraneangrillmotown.com,119 Morris St,Morristown,NJ,07960
214,180,My Kitchen,0,301 Mount Hope AveSte 2101,Rockaway,NJ,07866
215,181,Bernie’s,bernieshillside.com,125 Hillside Rd,Chester,NJ,07930
216,182,Joe and Anthony’s Pizza,joeandanthonys.com,30 International Dr SE1,Mount Olive Township,NJ,07836
218,183,Dante’s Ristorante,dantesnj.com,100 E Main St,Mendham,NJ,07945
219,184,Collins Pub Morris Plains,0,688 Speedwell Ave,Morris Plains,NJ,07950
220,185,Eagle Mini Diner,eagledinernj.com,134 Ledgewood Ave,Netcong,NJ,07857
221,186,La Gratella,lagratellapizza.com,450 Rt 10 W,Ledgewood,NJ,07852
223,187,Sheimer’s Deli,sheimers.com,3110 Rte 10,Denville,NJ,07834
224,188,China King,chinakingnj.com,760 US Hwy 46,Kenvil,NJ,07847
225,189,La Casa De Pollo,0,104 Speedwell Ave,Morristown,NJ,07960
226,190,Los Criollos,0,5 S Main St,Wharton,NJ,07885
228,191,Rockbottom Morris Patio & Grill,rockbottomgrill.com,4 John St,Morristown,NJ,07960
229,192,Tiny’s Tavern,0,110 Brady Rd,Lake Hopatcong,NJ,07849
230,193,M & S Pizza II,0,424 US Hwy 46 W,Rockaway Township,NJ,07866
231,194,Royal Halal Chicken And Biscuit,0,330 S Salem St,Dover,NJ,07801
232,195,Fire Roasted Chicken & Grill,fireroastedchickenandgrill.com,86 Ridgedale Ave,Cedar Knolls,NJ,07927
233,196,Big D’s Hot Dogs,0,Dover Train Station,Dover,NJ,07801
234,197,Luigis Pizza,0,275 State Rt 10 E,Succasunna,NJ,07876
235,198,Naranja Juice Bar,0,6B S Warren St,Dover,NJ,07801
236,199,Clean Juice,cleanjuice.com/locations/morri…,68 South St,Morristown,NJ,07960
0,200,Popeyes Louisiana Kitchen,https://www.popeyes.com/store-locator/store/restaurant_83200,Rockaway Townsquare Mall-301 Mt Hope Road - Suite 2109, Rockaway,NJ,07866
1,201,Buffalo Wild Wings,https://www.buffalowildwings.com/en/locations/detail/3634/?utm_source=google&utm_medium=organic&utm_campaign=rio,343 Mt Hope Ave, Rockaway,NJ,07866
2,202,Auntie Anne's,https://www.auntieannes.com/nj/rockaway/119-1?utm_source=google&utm_medium=organic&utm_campaign=localmaps,301 Mt Hope Ave Suite 1048, Rockaway,NJ,07866
4,203,Subway,https://order.subway.com/en-us/restaurant/21972/menu/?utm_source=yxt-goog&utm_medium=local&utm_term=acq&utm_content=21972&utm_campaign=evergreen-2020&y_source=1_MTQ5MTIyMjQtNzE1LWxvY2F0aW9uLmdvb2dsZV93ZWJzaXRlX292ZXJyaWRl,559 E Main St Store # 2, Denville,NJ,07834
5,204,Cinnamon,http://www.cinnamonindianrestaurant.com/,2920 NJ-10, Morris Plains,NJ,07950
6,205,The Quiet Man Pub/Restaurant,http://www.quietmanpub.com/,64 E McFarlan St, Dover,NJ,07801
7,206,Starbucks,https://www.starbucks.com/store-locator/store/12861/,3056 NJ-10 West, Denville,NJ,07834
8,207,Casa Bella,http://casabella46.com/,300 US-46, Denville,NJ,07834
10,208,Forte Pizzeria,http://www.fortepizzeria.com/,486 NJ-10, Randolph,NJ,07869
11,209,Five Guys,https://order.fiveguys.com/menu/denville/,"3056 Route 10 West, Suite C-1", Denville,NJ,07834
12,210,Sogo Hibachi Grill,http://www.sogo.cc/,"2730 248, US-46", Denville,NJ,07834
13,211,Subway,https://order.subway.com/en-us/restaurant/33969/menu/?utm_source=yxt-goog&utm_medium=local&utm_term=acq&utm_content=33969&utm_campaign=evergreen-2020&y_source=1_MTQ4OTU4NzgtNzE1LWxvY2F0aW9uLmdvb2dsZV93ZWJzaXRlX292ZXJyaWRl,220 Enterprise Dr, Rockaway,NJ,07866
16,212,Classic Cafe Management Inc,http://classiccafe.org/html/home.html,400 Interpace Pkwy, Parsippany,NJ,07054
19,213,Subway,https://www.subway.com/en-us,170 State Rt 46 E, Rockaway,NJ,07866
21,214,Panera Bread,https://locations.panerabread.com/nj/denville/3056-state-route-10.html?utm_medium=display-ad&utm_source=paid-digital&utm_campaign=yext&utm_content=local-search,3056 NJ-10 Suite S1, Denville,NJ,07834
22,215,Caffè NaVona,http://www.caffenavona.com/,147 US-46, Rockaway,NJ,07866
23,216,Chipotle Mexican Grill,https://locations.chipotle.com/nj/rockaway/301-mt-hope-ave?utm_source=google&utm_medium=yext&utm_campaign=yext_listings,301 Mt Hope Ave Ste 2067A, Rockaway,NJ,07866
24,217,Hibernia Diner Restaurant,http://www.hiberniadiner.com/,9 Green Pond Rd, Rockaway,NJ,07866
27,218,Red Robin Gourmet Burgers and Brews,https://redrobin.com/locations/rockaway,301 Mt Hope Ave, Rockaway,NJ,07866
28,219,Mario's Famous Pizza,http://www.mariosfamouspizza.com/,140 Rte 10 West, Randolph,NJ,07869
30,220,Cafe metro,http://www.thecafemetro.com/,Diamond Spring Rd, Denville,NJ,07834
31,221,Thai Nam Phet,http://www.thainamphet.com/,296 US-46 A, Rockaway,NJ,07866
32,222,Randolph Diner,https://www.therandolphdiner.com/,517 NJ-10 E, Randolph,NJ,07869
33,223,Townsquare Diner,http://townsquare-diner.com/,320 NJ-15, Wharton,NJ,07885
34,224,Cafe Fiori,0,477 NJ-10 STE 15, Randolph,NJ,07869
35,225,Alexis Diner,http://www.alexisdinernj.com/,3130 NJ-10, Denville,NJ,07834
37,226,Paul's Family Diner,http://www.paulsfamilydiner.com/,320 US-46, Mountain Lakes,NJ,07046
40,227,Starbucks,https://www.starbucks.com/store-locator/store/11034/,2-28 W Main St, Denville,NJ,07834
41,228,il Michelangelo Italian Restaurant,http://www.ilmichelangelo.com/,91 Elcock Ave, Boonton,NJ,07005
42,229,Grato,http://www.gratorestaurant.com/,2230 NJ-10, Morris Plains,NJ,07950
44,230,Classic Cafe Management,http://classiccafe.org/html/home.html,6 Century Dr, Parsippany,NJ,07054
45,231,Dunkin',https://smart.link/abu8tr12sc1y6?utm_source=google&utm_medium=local&utm_campaign=gmbwebsiteorder&utm_content=331283,125 Rte 46 E, Denville,NJ,07834
46,232,Bagel Bistro,http://www.bagelbistrorandolph.com/,81 NJ-10, Randolph,NJ,07869
47,233,China Garden,https://chinagardennjtogo.com/,179 US-46, Rockaway,NJ,07866
49,234,Master Wok,0,301 Mount Hope Ave Ste 2108, Rockaway,NJ,07866
50,235,Number 1 Restaurant,http://number-1-rockaway.jany.io/,25 W Main St, Rockaway,NJ,07866
51,236,Frito-Lay Inc,0,246 W Clinton St, Dover,NJ,07801
52,237,Barry's Luncheonette,http://www.barrysrestaurant.com/,3 N Warren St, Dover,NJ,07801
53,238,Tequila's 55,http://www.tequilas55.com/,55 E Blackwell St, Dover,NJ,07801
54,239,Denville Dog & Grill,http://denvilledogandicecream.com/,99 Bloomfield Ave, Denville,NJ,07834
55,240,Pan Pizza,0,44 N Sussex St, Dover,NJ,07801
56,241,Potbelly's Riverside Cafe,http://potbellysrockaway.com/,26 East Main Street, Rockaway,NJ,07866
57,242,Missy's Main Street Cafe,http://missysmainstreetcafe.com/,181 E Main St, Rockaway,NJ,07866
58,243,Riviera Maya Mexican Restaurant,https://www.snaptown-online.com/mobile/menu?restaurant_uid=959cdb38-1221-450d-b237-61d561d49351&coupon=,116 US-46, Rockaway,NJ,07866
59,244,RJ's Pizzeria,https://www.rjspizzeriamenu.com/,"4046, 179 US-46", Rockaway,NJ,07866
60,245,Long Valley Pub & Brewery at Restaurant Village,http://restaurantvillageatlongvalley.com/long-valley-pub-and-brewery/,1 Fairmount Rd, Long Valley,NJ,07853
62,246,Starbucks,https://www.starbucks.com/store-locator/store/18361/,450 US-206, Chester,NJ,07930
63,247,Gladstone Tavern,http://www.gladstonetavern.com/,273 Main St, Gladstone,NJ,07934
64,248,Benito's Trattoria,http://www.benitos-trattoria.net/,44 Main St, Chester,NJ,07930
65,249,Bagel Cafe,http://www.njbagelcafe.com/,"2424 233, US-206", Chester,NJ,07930
67,250,The After Char-Broil Grill & Ice Cream,http://www.theaftergrill.com/,195 US-206, Flanders,NJ,07836
69,251,Dunkin',https://smart.link/abu8tr12sc1y6?utm_source=google&utm_medium=local&utm_campaign=gmbwebsiteorder&utm_content=335433,112 Rte 206 South, Chester,NJ,07930
70,252,Dean's Natural Food Market,http://www.deansnaturalfoodmarket.com/,270 US-206, Chester,NJ,07930
71,253,Thai Kitchen,http://thaikitchenchester.com/,320 US-206, Chester,NJ,07930
72,254,Mini Mac Diner,http://mini-mac-diner.poi.place/,158 US-206, Chester,NJ,07930
73,255,Vale Pizza,http://www.philspizzeriamenu.com/,"67 E. Mill Rd, Plaza", Long Valley,NJ,07853
74,256,Dunkin',https://smart.link/abu8tr12sc1y6?utm_source=google&utm_medium=local&utm_campaign=gmbwebsiteorder&utm_content=302666,295 US Highway 206, Flanders,NJ,07836
76,257,Rita's Italian Ice & Frozen Custard,http://www.flandersritas.com/,286 US Highway 206, Flanders,NJ,07836
77,258,"Black Oak Golf Club, LLC",http://www.blackoakgolfclub.com/,169 Bartley Rd, Long Valley,NJ,07853
78,259,Wasabi Japanese Restaurant,http://wasabilove.com/,240 US-206 #8, Flanders,NJ,07836
79,260,Roman Pizza,0,81 Main St, Chester,NJ,07930
80,261,Aztec Authentic Mexican Restaurant,http://www.aztecmexicanrestaurant.com/,35 Perry St, Chester,NJ,07930
81,262,Pulled Fork BBQ,http://pulledforkbbq.com/,38 E Mill Rd, Long Valley,NJ,07853
82,263,Chester Diner,https://chesterdiner.wixsite.com/chesterdiner,65 US-206, Chester,NJ,07930
84,264,Marilyn's Cafe,0,21 W Main St, Chester,NJ,07930
85,265,Red Lantern Sushi & Asian Kitchen,http://restaurantvillageatlongvalley.com/red-lantern-restaurant/,9 W Mill Rd, Long Valley,NJ,07853
86,266,Jeffrey Brooks Interior Design,http://jeffrey-brooks-interior-design.business.site/,54 Schooleys Mountain Rd, Long Valley,NJ,07853
88,267,Sally Lunn's Restaurant & Tearoom,http://www.sallylunns.com/,15 Perry St, Chester,NJ,07930
89,268,Lamplighter Restaurant & Pub,0,190 W Main St, Chester,NJ,07930
90,269,Taste of India,http://www.tasteofindianj.com/,286 US-206, Flanders,NJ,07836
91,270,Old Mill Tavern,https://www.oldmilltavernchester.com/,55 Rte 24, Chester,NJ,07930
93,271,China House,https://chinahouseflandersvillage.com/,286 US-206 #107b, Flanders,NJ,07836
94,272,McDonald's,https://www.mcdonalds.com/us/en-us/location/NJ/FLANDERS/293-RT-206/7843.html?cid=RF:YXT:GMB::Clicks,293 Rt 206, Flanders,NJ,07836
95,273,Subway,https://order.subway.com/en-us/restaurant/23744/menu/?utm_source=yxt-goog&utm_medium=local&utm_term=acq&utm_content=23744&utm_campaign=evergreen-2020&y_source=1_MTQ5MDMzNDItNzE1LWxvY2F0aW9uLmdvb2dsZV93ZWJzaXRlX292ZXJyaWRl,293 Rt 206 S, Flanders,NJ,07836
96,274,Wendy's,https://locations.wendys.com/united-states/nj/chester/35-u.s.-hwy-206-s.?utm_source=Yext&utm_medium=Google_My_Business&utm_campaign=Local_Search&utm_content=EN_US,35 U.S. Hwy 206 S, Chester,NJ,07930
97,275,Giuseppe's Trattoria,https://www.giuseppestrattoria.com/,191 US-206, Chester,NJ,07930
98,276,Valley Restaurant,http://www.valleyrestaurantandpub.com/,59 E Mill Rd #208, Long Valley,NJ,07853
100,277,New York Pizza and Italian Restaurant,http://nypizzachesternj.com/,57 Main St # 2, Chester,NJ,07930
102,278,Asian Gourmet,http://www.asiangourmetlongvalley.com/,67 E Mill Rd, Long Valley,NJ,07853
103,279,Valentino's Pizzeria & Restaurant,http://www.valentinosflanders.com/,293 US-206 #8, Flanders,NJ,07836
104,280,Dunkin',https://smart.link/abu8tr12sc1y6?utm_source=google&utm_medium=local&utm_campaign=gmbwebsiteorder&utm_content=342284,62 E Mill Rd, Long Valley,NJ,07853
105,281,Domo 7 Japanese Restaurant,http://www.domo-7.com/,189 US-206, Chester,NJ,07930
106,282,Sub Pub,http://subpubnj.com/,127 Main St, Chester,NJ,07930
107,283,QuickChek,http://quickchek.com/,150 US-206, Chester Township,NJ,07930
108,284,Ho Ho Kitchen,http://hohokitchenchester.com/,44 Maple Ave, Chester,NJ,07930
109,285,Hot Bagels abroad,https://hot-bagels-abroad-bagel-shop.business.site/?utm_source=gmb&utm_medium=referral,240 US-206, Flanders,NJ,07836
110,286,Bella's,http://www.bellaspizzanj.com/,30 Main St, Chester,NJ,07930
111,287,Pren Kitchen,http://prenkitchen.com/,52 W Main St, Chester,NJ,07930
112,288,Chester,0,17 Main St, Chester,NJ,07930
113,289,Panera Bread,https://locations.panerabread.com/nj/chester/141-us-highway-206-s.html?utm_medium=display-ad&utm_source=paid-digital&utm_campaign=yext&utm_content=local-search,141 US Highway 206 S, Chester,NJ,07930
114,290,Playa Bowls,https://www.playabowls.com/,230 Rt 206 N, Chester,NJ,07930
115,291,Jersey Mike's Subs,https://www.jerseymikes.com/1106,390 Us Highway 206, Chester,NJ,07930
116,292,White Birch,http://whitebirchrestaurant.com/,380 US Highway 206, Flanders,NJ,07836
117,293,Golden Burrito Mexican Spot,https://www.orderburrito.com/,286 Route 206 South, Flanders,NJ,07836
118,294,Bento Sushi,https://www.bentosushi.com/us/,90 Bartley Flanders Rd, Flanders,NJ,07836
119,295,The Market Tavern,https://www.markettavernflanders.com/,240 US-206 #1, Flanders,NJ,07836
121,296,Grasshopper off the Green,https://grasshoppermorristown.com/,41-43 Morris St, Morristown,NJ,07960
124,297,The Famished Frog,http://www.famishedfrog.com/,18 Washington St, Morristown,NJ,07960
127,298,Allie's American Grille,0,1401 NJ-10, Whippany,NJ,07981
131,299,Blue Morel Restaurant and Wine Bar,http://bluemorel.com/,2 Whippany Rd, Morristown,NJ,07960
132,300,George & Martha's American Grille,https://www.georgeandmarthas.com/?y_source=1_MzQwMzA2OS03MTUtbG9jYXRpb24ud2Vic2l0ZQ%3D%3D,67-71 Morris St, Morristown,NJ,07960
133,301,Sushi Lounge,https://www.sushiloungenj.com/,12 Schuyler Pl, Morristown,NJ,07960
134,302,Il Capriccio,http://www.ilcapriccio.com/,633 NJ-10, Whippany,NJ,07981
135,303,Chipotle Mexican Grill,https://locations.chipotle.com/nj/madison/6-main-st?utm_source=google&utm_medium=yext&utm_campaign=yext_listings,6 Main St, Madison,NJ,07940
136,304,Nikko,http://www.nikkonj.com/,881 Route 10 East, Whippany,NJ,07981
137,305,Pazzo Pazzo,0,74 Speedwell Ave, Morristown,NJ,07960
141,306,Origin Thai 2,http://www.originthai2.com/,10 South St, Morristown,NJ,07960
142,307,Gary's Wine & Marketplace,http://www.garyswine.com/,121 Main St, Madison,NJ,07940
143,308,Tiffs Grill & Ale House,http://www.tiffsmorrisplains.com/,231 Speedwell Ave, Morris Plains,NJ,07950
144,309,Shanghai Jazz Restaurant & Bar,http://www.shanghaijazz.com/,24 Main St, Madison,NJ,07940
145,310,Mintea Sushi Asian Bistro,https://www.minteacedarknolls.com/,99 Ridgedale Ave, Cedar Knolls,NJ,07927
147,311,L'Allegria,http://lallegria.com/,11 Prospect St, Madison,NJ,07940
150,312,Brookside Diner & Restaurant,http://www.brooksidediner.com/,699 NJ-10, Whippany,NJ,07981
155,313,Morris Pizzeria,https://morrispizzeria.com/,161 South St, Morristown,NJ,07960
156,314,Wendy's,https://locations.wendys.com/united-states/nj/parsippany/1860-route-10?utm_source=Yext&utm_medium=Google_My_Business&utm_campaign=Local_Search&utm_content=EN_US,1860 NJ-10, Parsippany-Troy Hills,NJ,07054
157,315,Nicky’s Firehouse Italian Restaurant & Pizzeria,http://www.nickysfirehouse.com/,15 Central Ave, Madison,NJ,07940
158,316,Il Mondo Vecchio,http://www.ilmondovecchio.com/,72 Main St #1, Madison,NJ,07940
159,317,Millie’s Old World Meatballs & Pizza,http://milliesoldworld.com/,60 South St, Morristown,NJ,07960
161,318,Aikou restaurant,http://www.aikoumorristown.com/,54 South St, Morristown,NJ,07960
162,319,Starbucks,https://www.starbucks.com/store-locator/store/63068/,40 W Park Pl, Morristown,NJ,07960
163,320,Tashmoo Restaurant & Bar,http://www.tashmoobar.com/,8 Dehart St, Morristown,NJ,07960
164,321,Trattoria Toscana,http://trattoriatoscanawhippany.com/,554 NJ-10, Whippany,NJ,07981
165,322,Starbucks,https://www.starbucks.com/store-locator/store/1005610/,640 Shunpike Rd, Chatham,NJ,07928
166,323,Panera Bread,https://locations.panerabread.com/nj/florham-park/187-columbia-turnpike.html?utm_medium=display-ad&utm_source=paid-digital&utm_campaign=yext&utm_content=local-search,187 Columbia Turnpike, Florham Park,NJ,07932
167,324,Dunkin',https://smart.link/abu8tr12sc1y6?utm_source=google&utm_medium=local&utm_campaign=gmbwebsiteorder&utm_content=331425,59-61 Morris St, Morristown,NJ,07960
168,325,The Thirsty Turtle,http://www.thirstyturtle.com/,186 Columbia Turnpike, Florham Park,NJ,07932
169,326,McDonald's,https://www.mcdonalds.com/us/en-us/location/NJ/CEDAR-KNOLLS/35-MORRIS-COUNTY-MALL/25570.html?cid=RF:YXT:GMB::Clicks,35 Morris County Mall, Cedar Knolls,NJ,07927
170,327,Portofino's Restaurant,http://www.portofinosrestaurant.com/,29 Mills St, Morristown,NJ,07960
171,328,Tito's Burritos & Wings Morristown,https://www.titosburritos.com/location/titos-morristown/,26 Washington St #1, Morristown,NJ,07960
172,329,Rocco's Tuscany Bar and Grill,http://www.roccosmadison.com/,30 Cook Ave, Madison,NJ,07940
173,330,Domino's Pizza,https://www.dominos.com/en/?utm_source=google&utm_medium=loclist&utm_campaign=localmaps,147 Speedwell Ave, Morristown,NJ,07960
174,331,Dunkin',https://smart.link/abu8tr12sc1y6?utm_source=google&utm_medium=local&utm_campaign=gmbwebsiteorder&utm_content=348952,641 Shunpike Rd, Chatham Township,NJ,07928
176,332,Lin's Palace,0,40 Speedwell Ave, Morristown,NJ,07960
178,333,Molly Malone's,http://www.mollymaloneswhippany.com/,352 NJ-10, Whippany,NJ,07981
179,334,Romanelli's Pizza & Italian Eatery,https://www.romanellispizza.com/,42 Lincoln Pl, Madison,NJ,07940
180,335,Bonefish Grill,https://www.bonefishgrill.com/,28 US-46, Pine Brook,NJ,07058
184,336,Chand Palace,http://parsippany.chandpalace.com/,257 Littleton Rd, Parsippany,NJ,07054
186,337,Outback Steakhouse,https://www.outback.com/,1300 US-46 west, Parsippany-Troy Hills,NJ,07054
189,338,Applebee's Grill + Bar,https://restaurants.applebees.com/en-us/nj/parsippany/1057-route-46-east-93023?utm_source=googlemybusiness&utm_medium=referral&utm_campaign=Google%20My%20Business,1057 US-46, Parsippany,NJ,07054
191,339,LongHorn Steakhouse,https://www.longhornsteakhouse.com/locations/nj/parsippany/parsippany/5162?cmpid=br:lh_ag:ie_ch:loc_ca:LHGMB_dt:20190131_sn:gmb_gt:parsippany-nj-5162_pl:locurl_rd:1122,690 US-46, Parsippany-Troy Hills,NJ,07054
192,340,Subway,https://order.subway.com/en-us/restaurant/35346/menu/?utm_source=yxt-goog&utm_medium=local&utm_term=acq&utm_content=35346&utm_campaign=evergreen-2020&y_source=1_MTQ5MTYyOTQtNzE1LWxvY2F0aW9uLmdvb2dsZV93ZWJzaXRlX292ZXJyaWRl,300 Wootton St, Boonton,NJ,07005
194,341,Reservoir Tavern,http://www.therestavern.com/,92 Parsippany Blvd, Boonton,NJ,07005
195,342,Eccola,http://www.eccolarestaurantnj.com/,1082 US-46, Parsippany,NJ,07054
199,343,Don Pepe II,http://donpepeii.com/home/,21 Bloomfield Ave, Pine Brook,NJ,07058
200,344,Locanda Vecchia,http://locandavecchia.com/,167 Main Rd, Montville,NJ,07045
201,345,Subway,https://order.subway.com/en-us/restaurant/25827/menu/?utm_source=yxt-goog&utm_medium=local&utm_term=acq&utm_content=25827&utm_campaign=evergreen-2020&y_source=1_MTQ5MDkyMTktNzE1LWxvY2F0aW9uLmdvb2dsZV93ZWJzaXRlX292ZXJyaWRl,105 Parsippany Rd, Parsippany-Troy Hills,NJ,07054
202,346,Sharky's West,http://www.sharkyswingsnj.com/,108 Boonton Ave, Boonton,NJ,07005
206,347,Marakesh Restaurant,http://www.marakesh.com/,321 US-46, Parsippany,NJ,07054
207,348,Spice Grill,https://spicegrillparsippany.com/,111 US-46, Parsippany-Troy Hills,NJ,07054
208,349,Luigi's Italian Restaurant & Bar,http://www.luigisrestaurantnj.com/,434 Ridgedale Ave, East Hanover,NJ,07936
209,350,Domino's Pizza,https://www.dominos.com/en/?utm_source=google&utm_medium=loclist&utm_campaign=localmaps,199 Littleton Rd, Parsippany-Troy Hills,NJ,07054
211,351,KHAN MARKET,0,142 US-46, Parsippany-Troy Hills,NJ,07054
214,352,Don Pepe Steakhouse,http://www.donpepesteakhouse.com/,"58 West, US-46", Pine Brook,NJ,07058
215,353,Gourmet Cafe,http://www.gourmetcafenj.com/,136 Baldwin Rd, Parsippany-Troy Hills,NJ,07054
220,354,Jersey Mike's Subs,https://www.jerseymikes.com/1030,317 Smith Rd, Parsippany-Troy Hills,NJ,07054
221,355,Keo Ku Restaurant,https://koreanbbqnewjersey.com/index.php,245 US-46, Parsippany-Troy Hills,NJ,07054
222,356,Kabab Paradise,http://kababparadise.com/,76 N Beverwyck Rd # 2, Lake Hiawatha,NJ,07034
223,357,Don Jose Mexican Restaurant East Hanover NJ,http://www.donjosemexican.com/,200 NJ-10 #7, East Hanover,NJ,07936
226,358,IHOP,https://restaurants.ihop.com/en-us/nj/parsippany/breakfast-792-route-46-4685?utm_source=Google&utm_medium=Maps&utm_campaign=Google+Places,792 US-46, Parsippany-Troy Hills,NJ,07054
227,359,Dunkin',https://smart.link/abu8tr12sc1y6?utm_source=google&utm_medium=local&utm_campaign=gmbwebsiteorder&utm_content=302337,820 US-46, Parsippany-Troy Hills,NJ,07054
229,360,Taco Bell,https://locations.tacobell.com/nj/parsippany/1560-route-46.html?utm_source=yext&utm_campaign=googlelistings&utm_medium=referral&utm_term=028939&utm_content=website&y_source=1_NjE0NjA3MS03MTUtbG9jYXRpb24uZ29vZ2xlX3dlYnNpdGVfb3ZlcnJpZGU%3D,1560 US-46, Parsippany-Troy Hills,NJ,07054
230,361,Sakura Hibachi Steak House,http://www.sakuranj.com/,949 US-46, Parsippany-Troy Hills,NJ,07054
231,362,The Godfather Brick Oven Pizzeria,http://www.godfatherofeasthanover.com/,200 NJ-10 #3, East Hanover,NJ,07936
232,363,Pasquale's,http://pasqualesboonton.com/,307 Main St #1, Boonton,NJ,07005
234,364,Ravello,http://www.ravellobanquets.com/,138 Eagle Rock Ave, East Hanover,NJ,07936
237,365,Panda Wok,https://pandawokparsippany.com/,184 Parsippany Rd, Parsippany-Troy Hills,NJ,07054
239,366,Red Barn Restaurant,http://www.redbarnchicks.com/,446 Main Rd #5, Towaco,NJ,07082
242,367,The HAT Tavern,http://www.hattavern.com/,570 Springfield Ave, Summit,NJ,07901
244,368,Roots Steakhouse,http://www.rootssteakhouse.com/,401 Springfield Ave, Summit,NJ,07901
246,369,Scalini Fedeli,http://www.scalinifedeli.com/,63 Main St, Chatham,NJ,07928
247,370,Huntley Taverne,http://www.thehuntleytaverne.com/,3 Morris Ave, Summit,NJ,07901
248,371,Bacci Brick Oven & Italian Grill,0,1260 Springfield Ave, New Providence,NJ,07974
249,372,Benihana,http://www.benihana.com/locations/shorthills-nj-sh,840 Morris Tpke, Short Hills,NJ,07078
250,373,Sarku Japan,https://www.sarkujapan.com/,112 Sunrise Hwy, Livingston,NJ,07039
253,374,Legal Sea Foods,https://www.legalseafoods.com/restaurants/short-hills-the-mall-at-short-hills-161,"1200 Morris Turnpike, Route 24 & JFK Parkway The Mall at", Short Hills,NJ,07078
256,375,Chipotle Mexican Grill,https://locations.chipotle.com/nj/east-hanover/368-state-route-10?utm_source=google&utm_medium=yext&utm_campaign=yext_listings,368 NJ-10, East Hanover,NJ,07936
257,376,Fiorino Ristorante & Bar,http://fiorino.com/,38 Maple St, Summit,NJ,07901
258,377,Restaurant Serenade,https://www.restaurantserenade.com/,6 Roosevelt Ave, Chatham,NJ,07928
260,378,Broadway Diner,http://www.broadwaydinersummit.com/,55 River Rd, Summit,NJ,07901
263,379,Marco Polo Restaurant & Tavern,http://www.marcopolonj.com/,527 Morris Ave, Summit,NJ,07901
265,380,Panevino Ristorante,https://www.patinagroup.com/panevino-ristorante,637 W Mt Pleasant Ave, Livingston,NJ,07039
267,381,Winberie's Restaurant & Bar,http://summit.winberies.com/,2 Kent Pl Blvd, Summit,NJ,07901
271,382,The Cheesecake Factory,https://locations.thecheesecakefactory.com/nj/short-hills-154.html?utm_source=Google&utm_medium=Maps&utm_campaign=Google+Places,1200 Morris Tpke, Short Hills,NJ,07078
273,383,Starbucks,https://www.starbucks.com/store-locator/store/13473/,2 Beechwood Rd, Summit,NJ,07901
274,384,Office Tavern Grill,https://www.officetaverngrill.com/?utm_source=Yext&utm_medium=Local&utm_campaign=Website&y_source=1_MzQwMzA1OC03MTUtbG9jYXRpb24ud2Vic2l0ZQ%3D%3D,61 Union Pl, Summit,NJ,07901
277,385,Village Food Garden,http://www.villagefoodgarden.com/,483 S Livingston Ave, Livingston,NJ,07039
278,386,Starbucks,https://www.starbucks.com/,309 Main St, Madison,NJ,07940
279,387,Subway,https://order.subway.com/en-us/restaurant/29876/menu/?utm_source=yxt-goog&utm_medium=local&utm_term=acq&utm_content=29876&utm_campaign=evergreen-2020&y_source=1_MTQ5MDIyMTktNzE1LWxvY2F0aW9uLmdvb2dsZV93ZWJzaXRlX292ZXJyaWRl,1269 B Springfield Ave, New Providence,NJ,07974
284,388,Nero's Grille,http://www.neros.com/,618 S Livingston Ave, Livingston,NJ,07039
287,389,La Focaccia,http://www.lafocaccianj.com/,523 Morris Ave, Summit,NJ,07901
288,390,Calabria Restaurant Bar & Pizzeria,https://calabrianj.com/,588 S Livingston Ave, Livingston,NJ,07039
289,391,China Chalet,http://chinachaletnj.com/,184 Columbia Turnpike, Florham Park,NJ,07932
291,392,Begum Palace Indian Cuisine (Takeouts & Delivery Only Through Our Website),http://www.begumindiancuisine.com/,300 Main St, Madison,NJ,07940
293,393,La Pastaria,http://www.lapastaria.com/,327 Springfield Ave, Summit,NJ,07901
294,394,A Taste of Asia,http://www.atasteofasianj.com/index.htm,245 Main St, Chatham,NJ,07928
295,395,Prestige Diner & Restaurant,http://www.prestigediner.com/,1318 Springfield Ave, New Providence,NJ,07974
301,396,LongHorn Steakhouse,https://www.longhornsteakhouse.com/locations/nj/flanders/flanders-mt-olive/5192?cmpid=br:lh_ag:ie_ch:loc_ca:LHGMB_dt:20190131_sn:gmb_gt:flanders-nj-5192_pl:locurl_rd:1149,50 International Dr S Ste J, Flanders,NJ,07836
302,397,Lung Yung Restaurant,http://lungyungrestaurant.com/,275-50 NJ-10, Succasunna,NJ,07876
303,398,Cinders Wood Fire Grill,http://www.cinderswoodfiregrill.com/,319 US-46, Mine Hill Township,NJ,07803
304,399,Black Forest Inn,http://www.blackforestinn.com/,249 US-206, Stanhope,NJ,07874
305,400,Cracker Barrel Old Country Store,https://locations.crackerbarrel.com/nj/mount-arlington/406/?utm_source=Google&utm_medium=Maps&utm_campaign=Google+Places,172 Howard Blvd, Mt Arlington,NJ,07856
306,401,Black River Barn,http://www.blackriverbarn.com/,"1178 Route 10, West St", Randolph,NJ,07869
308,402,La Strada Ristorante,https://www.lastradarestaurantrandolph.com/,1105 NJ-10, Randolph,NJ,07869
309,403,Subway,https://order.subway.com/en-us/restaurant/24483/menu/?utm_source=yxt-goog&utm_medium=local&utm_term=acq&utm_content=24483&utm_campaign=evergreen-2020&y_source=1_MTQ5MDkzODItNzE1LWxvY2F0aW9uLmdvb2dsZV93ZWJzaXRlX292ZXJyaWRl,61 International Dr Space A-5, Budd Lake,NJ,07828
311,404,Circle Bowl & Entertainment,http://circlebowlnj.com/,1107 Route 46 W, Ledgewood,NJ,07852
313,405,Red Lobster,https://www.redlobster.com/locations/list/nj/ledgewood/303-route-10-roxbury-township,303 NJ-10, Roxbury Township,NJ,07852
316,406,The Clay Oven,http://www.theclayoven.com/,1140 US-46, Ledgewood,NJ,07852
318,407,Taco Bell,https://locations.tacobell.com/nj/succasunna/268-route-10.html?utm_source=yext&utm_campaign=googlelistings&utm_medium=referral&utm_term=028938&utm_content=website&y_source=1_NjE0NDY5My03MTUtbG9jYXRpb24uZ29vZ2xlX3dlYnNpdGVfb3ZlcnJpZGU%3D,268 NJ-10, Succasunna,NJ,07876
320,408,White Castle,http://www.whitecastle.com/,1113 US-46, Ledgewood,NJ,07852
322,409,Wendy's,https://locations.wendys.com/united-states/nj/flanders/50-international-drive-south?utm_source=Yext&utm_medium=Google_My_Business&utm_campaign=Local_Search&utm_content=EN_US,50 International Dr S Suite G, Flanders,NJ,07836
324,410,Don Jose Mexican Restaurant,http://www.donjosemexican.com/,124 US-46, Netcong,NJ,07857
325,411,Carmine's Pizza,http://www.carminespizzanetcong.com/,75 Main St, Netcong,NJ,07857
328,412,Domino's Pizza,https://www.dominos.com/en/?utm_source=google&utm_medium=loclist&utm_campaign=localmaps,141 US-46, Budd Lake,NJ,07828
331,413,QuickChek,http://quickchek.com/,40 Lakeside Blvd, Hopatcong,NJ,07843
332,414,Sals Pizza & Restaurant,0,175 Lakeside Blvd #7, Landing,NJ,07850
334,415,IHOP,https://restaurants.ihop.com/en-us/nj/kenvil/breakfast-810-us-hwy-46-4779?utm_source=Google&utm_medium=Maps&utm_campaign=Google+Places,810 US-46, Kenvil,NJ,07847
335,416,KFC,https://locations.kfc.com/nj/ledgewood/1110-route-46,1110 US-46, Ledgewood,NJ,07852
336,417,Domino's Pizza,https://www.dominos.com/en/?utm_source=google&utm_medium=loclist&utm_campaign=localmaps,1009 US-46, Ledgewood,NJ,07852
338,418,L and L Deli & Liquor Store,http://www.landldelinj.com/,264 US-46, Mine Hill Township,NJ,07803
339,419,Dunkin',https://smart.link/abu8tr12sc1y6?utm_source=google&utm_medium=local&utm_campaign=gmbwebsiteorder&utm_content=340801,114 State Hwy Route 206 In Exxon Gas Station, Mt Olive,NJ,07836
341,420,Lucky House,https://m.facebook.com/pages/Lucky-House/1018488794837387,Hopatchung Rd, Hopatcong,NJ,07843
342,421,Outback Steakhouse,https://www.outback.com/,1070 US-46, Ledgewood,NJ,07852
343,422,Iron Hills Tavern,0,1447 US-46, Ledgewood,NJ,07852
344,423,bp,https://map.bp.com/en-US/US/gas-station/ledgewood/bp/72247248915510785200100000000000,"1551 Ledgewood Road, US-46", Ledgewood,NJ,07852
345,424,La Gratella Pizza & Restaurant,http://www.lagratellapizzarestaurant.com/,450 NJ-10, Ledgewood,NJ,07852
347,425,The Bistro – Eat. Drink. Connect.®,http://www.marriott.com/hotels/hotel-information/restaurant/ewrma-courtyard-rockaway-mt-arlington/?scid=bb1a189a-fec3-4d19-a255-54ba596febe2,15 Howard Blvd, Mt Arlington,NJ,07856
348,426,Fuddruckers,https://www.fuddruckers.com/roxbury,275 NJ-10, Succasunna,NJ,07876
349,427,Jersey Mike's Subs,https://www.jerseymikes.com/1069,275 NJ-10 E, Succasunna,NJ,07876
350,428,Yummy Taste Chinese Restaurant,https://yummytaste89.wixsite.com/yummytastechinese,692 US-46, Kenvil,NJ,07847
351,429,Joe's Pizzeria & Restaurant,http://www.joespizzeriakenvil.com/,586 US-46, Kenvil,NJ,07847
352,430,Casella's Pizzeria & Deli,http://www.casellaspizza.com/,139 State Route 10 East, Succasunna,NJ,07876
353,431,One Touch Design,https://otdav.com/,210 Kings Hwy #7, Landing,NJ,07850
354,432,Dunkin',https://smart.link/abu8tr12sc1y6?utm_source=google&utm_medium=local&utm_campaign=gmbwebsiteorder&utm_content=353769,57 NJ-10 E, Succasunna,NJ,07876
355,433,Anthony & Sons Bakery & Italian Deli,http://anthonyandsonsbakerynj.com/,15 NJ-10, Succasunna,NJ,07876
356,434,Pizza Express Mt. Arlington,https://pizzaexpressmtarlington.com/,312 Howard Blvd, Mt Arlington,NJ,07856
357,435,Shell,https://find.shell.com/us/fuel/12395193-274-rt-46-e,274 US-46, Mine Hill Township,NJ,07803
358,436,Dunkin',https://smart.link/abu8tr12sc1y6?utm_source=google&utm_medium=local&utm_campaign=gmbwebsiteorder&utm_content=349334,274 Rte 46, Mine Hill Township,NJ,07803
359,437,Polo's Bar & Grill,http://polosbarandgrill.com/,50 NJ-183, Netcong,NJ,07857
0,438,Pollos Pucalor,http://www.pollospucalor.com/,85 E Blackwell St, Dover,NJ,07801
1,439,Pub 199,https://pub199nj.com/,199 Howard Blvd, Mt Arlington,NJ,07856
2,440,Tabor Road Tavern,http://www.taborroadtavern.com/,510 Tabor Rd, Morris Plains,NJ,07950
3,441,Hunan Taste Chinese Restaurant,http://hunantaste.com/,67 Bloomfield Ave, Denville,NJ,07834
4,442,Bell’s Mansion,http://www.bellsmansion.com/,11 Main St, Stanhope,NJ,07874
5,443,Charlotte’s Web Inn,http://www.charlotteswebinn.com/,39 W Clinton St, Dover,NJ,07801
6,444,Verde Ristorante,http://verderistorante.com/,1012 Tabor Rd, Morris Plains,NJ,07950
7,445,Redwood’s Grill & Bar,http://redwoodsgrillandbar.com/,459 Main St, Chester,NJ,07930
9,446,Sammy’s Ye Old Cider Mill,http://www.sammyscidermill.com/,353 Mendham Rd W, Mendham,NJ,07945
10,447,Thatcher McGhee’s,http://www.thatchermcghees.com/denville,53 Broadway, Denville,NJ,07834
11,448,Arthur’s Tavern,http://www.arthurstavern.com/,700 Speedwell Ave, Morris Plains,NJ,07950
12,449,Rockaway River Barn,http://www.rockawayriverbarn.com/,11 Green Pond Rd, Rockaway,NJ,07866
13,450,Olive Lucy’s Kitchen Table,http://www.olivelucys.com/,52 Speedwell Ave, Morristown,NJ,07960
14,451,Hibiscus Island Grill,http://www.hibiscuscuisine.com/,21 Spring St, Morristown,NJ,07960
15,452,La Cucina,http://www.lacucina-denville.com/,278 Diamond Spring Rd, Denville,NJ,07834
16,453,Chef Fredy’s Table,http://www.cheffredystable.com/,78 Speedwell Ave, Morristown,NJ,07960
17,454,Veggie Heaven,http://www.veggieheavennj.com/,57 Bloomfield Ave, Denville,NJ,07834
18,455,The Pizza Pub Restaurant,http://pizzapubrestaurant.com/,395 Dover Chester Rd, Ironia,NJ,07845
19,456,Fresco Mexican,http://www.frescomexican.com/,137 Main St, Chester,NJ,07930
20,457,Ruth’s Chris Steak House,https://www.ruthschris.com/restaurant-locations/parsippany/?utm_source=google&utm_medium=organic&utm_campaign=local-business-listing,1 Hilton Ct, Parsippany-Troy Hills,NJ,07054
21,458,Casa D Pizza,https://www.chinapaviliononline.com/,276 E Main St, Denville,NJ,07834
23,459,The Grand Cafe,http://www.thegrandcafe.com/,42 Washington St, Morristown,NJ,07960
24,460,Bill’s Luncheonette,http://www.billsluncheonette.com/,455 North Rd, Chester Township,NJ,07930
25,461,End of Elm,http://endofelm.com/,140 Morris St, Morristown,NJ,07960
26,462,The Exchange,http://www.exchangefood.com/,160 E Main St, Rockaway,NJ,07866
27,463,Rod’s Steak & Seafood Grille,http://www.themadisonhotel.com/,1 Convent Rd, Morristown,NJ,07960
29,464,Anthony & Sons Bakery,http://anthonyandsonsbakerynj.com/,20 Luger Rd, Denville,NJ,07834
30,465,L’eggo My Bagel,https://www.empowernutritionstores.com/,760 US-46, Kenvil,NJ,07847
31,466,Pavinci Italian Grill,http://pavinci.com/,453 River Styx Rd, Hopatcong,NJ,07843
32,467,Jefferson House,http://www.jefferson-house.com/,139 Nolans Point Rd, Lake Hopatcong,NJ,07849
33,468,Olive Garden Italian Restaurant,https://www.olivegarden.com/locations/nj/rockaway/rockaway-mall/1638?cmpid=br:og_ag:ie_ch:loc_ca:OGGMB_dt:20190131_sn:gmb_gt:rockaway-nj-1638_pl:locurl_rd:1505,323 Mt Hope Ave, Rockaway,NJ,07866
34,469,The Stanhope House,http://www.stanhopehousenj.com/,45 Main St, Stanhope,NJ,07874
35,470,Mehndi,http://www.mehndimorristown.com/,3 Speedwell Ave, Morristown,NJ,07960
38,471,Bryans Luncheonette,http://bryansluncheonette.com/,42 Main St, Succasunna,NJ,07876
39,472,China City Restaurant,https://order.subway.com/en-us/restaurant/46636/menu/?utm_source=yxt-goog&utm_medium=local&utm_term=acq&utm_content=46636&utm_campaign=evergreen-2020&y_source=1_MTQ5MDk4MjQtNzE1LWxvY2F0aW9uLmdvb2dsZV93ZWJzaXRlX292ZXJyaWRl,148 Center Grove Rd, Randolph,NJ,07869
